STARLINK-4252           
1 53057U 22077Q   22203.50001157  .00055038  00000+0  45225-3 0  9997
2 53057  97.6568  22.1226 0001456  78.4945  58.4073 15.70280527  2388
STARLINK-4317           
1 53058U 22077R   22203.25001157  .00042928  00000+0  35405-3 0  9993
2 53058  97.6566  21.8475 0001745  72.3632  90.4593 15.70241671  1307
STARLINK-4320           
1 53059U 22077S   22203.83334491 -.00014148  00000+0 -11568-3 0  9997
2 53059  97.6567  22.4843 0001328  83.8574 137.3818 15.70315600  2434
STARLINK-4305           
1 53060U 22077T   22203.50001157  .00057177  00000+0  47042-3 0  9996
2 53060  97.6564  22.1229 0001389  72.8298  63.4315 15.70241543  2385
STARLINK-4308           
1 53061U 22077U   22203.25001157  .00005521  00000+0  46577-4 0  9998
2 53061  97.6572  21.8517 0001655  81.4321  85.5936 15.70297043  1301
STARLINK-4311           
1 53062U 22077V   22203.50001157  .00057774  00000+0  47478-3 0  9994
2 53062  97.6569  22.1233 0001306  72.3871  65.1424 15.70267701  2382
STARLINK-4307           
1 53063U 22077W   22203.50001157  .00056952  00000+0  46818-3 0  9999
2 53063  97.6574  22.1262 0001624  72.9132  67.5640 15.70262099  2381
STARLINK-4313           
1 53064U 22077X   22203.50001157 -.00013268  00000+0 -10833-3 0  9993
2 53064  97.6572  22.1239 0001514  73.1354  65.6014 15.70331736  2380
STARLINK-4312           
1 53065U 22077Y   22203.50001157  .00055945  00000+0  46182-3 0  9996
2 53065  97.6570  22.1254 0000820  80.3178  60.6267 15.70166337  2387
STARLINK-4309           
1 53066U 22077Z   22203.50001157  .00056546  00000+0  46550-3 0  9994
2 53066  97.6568  22.1253 0001314  87.1431  52.7276 15.70230106  2388
STARLINK-4306           
1 53067U 22077AA  22203.83334491  .00114012  00000+0  93407-3 0  9997
2 53067  97.6561  22.4875 0001407  62.7284 163.5705 15.70151694  2431
STARLINK-4325           
1 53068U 22077AB  22203.83334491 -.00363131  00000+0 -30921-2 0  9999
2 53068  97.6581  22.4869 0001825  94.8860 130.5076 15.70543938  2438
STARLINK-4323           
1 53069U 22077AC  22203.50001157  .00057500  00000+0  47254-3 0  9990
2 53069  97.6572  22.1268 0001026  74.8072  69.2846 15.70268141  2382
STARLINK-4342           
1 53070U 22077AD  22203.83334491 -.00199521  00000+0 -16782-2 0  9991
2 53070  97.6574  22.4881 0001513  74.3195 151.5051 15.70371399  2431
STARLINK-4328           
1 53071U 22077AE  22203.83334491 -.00009842  00000+0 -80055-4 0  9994
2 53071  97.6572  22.4887 0001020  82.1176 146.2635 15.70330679  2430
STARLINK-4344           
1 53072U 22077AF  22203.50001157  .00057284  00000+0  47112-3 0  9996
2 53072  97.6552  22.1256 0001760  75.0984  68.4141 15.70249929  2383
STARLINK-4346           
1 53073U 22077AG  22203.25001157  .00043261  00000+0  35643-3 0  9995
2 53073  97.6566  21.8552 0001628  82.6061  91.5604 15.70265100  1308
STARLINK-4310           
1 53074U 22077AH  22203.83334491  .00040465  00000+0  33337-3 0  9991
2 53074  97.6569  22.4876 0001068  92.9557 134.9190 15.70280465  2438
STARLINK-4348           
1 53075U 22077AJ  22203.25001157  .00033953  00000+0  28021-3 0  9996
2 53075  97.6554  21.8547 0001339  85.2953  90.1529 15.70272065  1308
STARLINK-4347           
1 53076U 22077AK  22203.50001157  .00058920  00000+0  48360-3 0  9994
2 53076  97.6556  22.1274 0001771  74.0530  71.6118 15.70292325  2387
STARLINK-4315           
1 53077U 22077AL  22203.50001157 -.00044013  00000+0 -36315-3 0  9992
2 53077  97.6568  22.1305 0001523  76.9644  71.9269 15.70335353  2387
STARLINK-4322           
1 53078U 22077AM  22203.50001157  .00057327  00000+0  47112-3 0  9990
2 53078  97.6569  22.1295 0001426  69.4129  77.6762 15.70268280  2389
STARLINK-4327           
1 53079U 22077AN  22203.83334491  .00052928  00000+0  43545-3 0  9995
2 53079  97.6553  22.4901 0001465  82.9967 149.6191 15.70259007  2432
STARLINK-4330           
1 53080U 22077AP  22203.50001157  .00056501  00000+0  46417-3 0  9993
2 53080  97.6569  22.1297 0001373  61.8505  86.4067 15.70280103  2383
STARLINK-4326           
1 53081U 22077AQ  22203.50001157  .00055804  00000+0  45898-3 0  9991
2 53081  97.6560  22.1309 0001225  76.5585  74.0477 15.70254607  2384
STARLINK-4321           
1 53082U 22077AR  22203.83334491  .00002237  00000+0  19515-4 0  9998
2 53082  97.6569  22.4906 0001331  85.2800 147.8943 15.70310553  2431
STARLINK-4251           
1 53083U 22077AS  22203.83334491  .00096035  00000+0  78556-3 0  9997
2 53083  97.6570  22.5037 0001322  67.4624 185.7944 15.70246964  2432
STARLINK-4319           
1 53084U 22077AT  22203.25001157  .00043930  00000+0  36135-3 0  9997
2 53084  97.6567  21.8568 0001584  89.2469  89.6402 15.70301489  1309
STARLINK-4324           
1 53085U 22077AU  22203.50001157  .00055679  00000+0  45863-3 0  9997
2 53085  97.6562  22.1324 0001100  62.1195  90.8397 15.70219691  2388
STARLINK-4318           
1 53086U 22077AV  22203.83334491  .00102601  00000+0  83838-3 0  9996
2 53086  97.6556  22.4912 0001321  90.9056 144.7027 15.70251460  2433
STARLINK-4329           
1 53087U 22077AW  22203.50001157  .00057339  00000+0  47201-3 0  9992
2 53087  97.6565  22.1339 0001753  79.2617  74.9426 15.70227022  2384
STARLINK-4333           
1 53088U 22077AX  22203.83334491 -.00000693  00000+0 -46177-5 0  9995
2 53088  97.6561  22.4927 0001085  82.2211 154.5003 15.70335616  2430
FALCON 9 DEB            
1 53089U 22077AY  22203.45883134  .00160861  11530-4  57021-3 0  9992
2 53089  97.6736  22.3062 0008801 216.1847 143.8830 15.88968801  1817
FALCON 9 DEB            
1 53090U 22077AZ  22203.20393280  .00188480  15043-4  65359-3 0  9998
2 53090  97.6724  22.0251 0007093 202.3738 157.7225 15.89419973  1770
FALCON 9 DEB            
1 53091U 22077BA  22203.44770266  .00196098  16337-4  63073-3 0  9990
2 53091  97.6690  22.3140 0011716 199.7007 160.3814 15.90830271  1817
FALCON 9 DEB            
1 53092U 22077BB  22203.44547586  .00185571  14902-4  58905-3 0  9996
2 53092  97.6687  22.3156 0011695 184.9218 175.1941 15.91093197  1811
TIANLIAN 2-03           
1 53100U 22078A   22194.13372968 -.00182734 -28037-6 -12902-1 0  9994
2 53100  27.1659 175.2503 7307003 174.6584 353.4153  2.27743687    10
CZ-3B R/B               
1 53101U 22078B   22203.19284127  .00047655 -42771-6  11812-2 0  9992
2 53101  27.1293 172.0915 7241772 179.7090 181.4377  2.37586308   232
LARES-2                 
1 53105U 22080A   22200.94587996 -.00000020  00000+0  00000+0 0  9990
2 53105  70.1503  75.1670 0005700 283.0795  76.9384  6.38966637   410
MTCUBE 2 (ROBUSTA 1F)   
1 53106U 22080B   22200.91061454 -.00000003  00000+0  00000+0 0  9995
2 53106  70.1487  75.1736 0007916 271.0195  89.0023  6.42551663   405
ASTROBIOCUBESAT         
1 53107U 22080C   22200.91487036 -.00000003  00000+0  00000+0 0  9994
2 53107  70.1605  75.1743 0011727 251.6089 108.1541  6.42111202   316
TRISAT-R                
1 53108U 22080D   22200.29161985 -.00000003  00000+0  00000+0 0  9998
2 53108  70.0017  75.4272 0015432 250.6917 109.4018  6.42150429   271
GREENCUBE               
1 53109U 22080E   22203.08921435 -.00000003  00000+0  00000+0 0  9993
2 53109  70.1365  74.2220 0009055 241.9621 118.0115  6.42583617   439
2022-080F               
1 53110U 22080F   22202.31198707 -.00000003  00000+0  00000+0 0  9998
2 53110  70.1580  74.6827 0034826 140.7736 219.5527  6.42512217   380
CELESTA                 
1 53111U 22080G   22201.22212397 -.00000003  00000+0  00000+0 0  9990
2 53111  70.1472  75.0842 0008017 230.7865 129.1755  6.42529879   302
2022-080H               
1 53112U 22080H   22197.22866146 -.00000003  00000+0  00000+0 0  9992
2 53112  70.1463  76.4508 0010840 259.7188 224.1212  6.42613720    58
DRAGON CRS-25           
1 53113U 22081A   22202.50409816  .00008230  00000+0  15168-3 0  9993
2 53113  51.6423 166.6142 0005036  35.1595  64.1866 15.50062623350508
SUPERVIEW NEO-2 O1      
1 53128U 22082A   22203.52784065  .00005303  00000+0  21780-3 0  9990
2 53128  97.3852 211.4303 0011444 242.0701 282.8095 15.24569291  1008
CZ-2C DEB               
1 53129U 22082B   22202.97083287  .00026188  00000+0  10427-2 0  9996
2 53129  97.3849 210.8848 0011415 251.2052 108.7975 15.25163183   925
SUPERVIEW NEO-2 02      
1 53130U 22082C   22203.78826238  .00005356  00000+0  21475-3 0  9999
2 53130  97.3847 211.6948 0011909 258.6159 274.2989 15.25373525  1043
CZ-2C R/B               
1 53131U 22082D   22203.45010727  .00011797  00000+0  32745-3 0  9990
2 53131  97.3585 211.3884 0048817 350.8478   9.1861 15.35837079   993
STARLINK-4063           
1 53132U 22083A   22203.83334491 -.01355588  50287-3 -52669-2 0  9995
2 53132  53.2175  21.1227 0025277  50.1999 120.7389 15.85985010  1474
STARLINK-4154           
1 53133U 22083B   22203.83334491 -.01354284  50150-3 -52890-2 0  9993
2 53133  53.2175  21.1271 0025320  50.1353 119.0752 15.85878117  1471
STARLINK-4150           
1 53134U 22083C   22203.83334491 -.01354935  50218-3 -52788-2 0  9998
2 53134  53.2175  21.1246 0025230  50.2062 119.8772 15.85931172  1473
STARLINK-4023           
1 53135U 22083D   22203.83334491 -.01354872  50197-3 -52958-2 0  9994
2 53135  53.2175  21.1264 0024529  49.9253 119.6075 15.85894203  1478
STARLINK-4152           
1 53136U 22083E   22203.83334491 -.01355166  50225-3 -52911-2 0  9993
2 53136  53.2175  21.1253 0024625  49.7568 120.0521 15.85912775  1478
STARLINK-4145           
1 53137U 22083F   22203.83334491 -.01355419  50259-3 -52786-2 0  9992
2 53137  53.2175  21.1248 0024997  49.8993 120.4705 15.85949188  1474
STARLINK-4141           
1 53138U 22083G   22203.83334491 -.01396656  56264-3 -38619-2 0  9992
2 53138  53.2174  20.9912 0034118  52.7601 188.1373 15.92177791  1477
STARLINK-4185           
1 53139U 22083H   22203.83334491 -.01355961  50329-3 -52568-2 0  9992
2 53139  53.2175  21.1226 0025453  50.2238 121.2602 15.86022171  1478
